51640,ONEWEB-0446,2022,109.9,148.0,+,87.9,Active,1,LEO,French Guiana,UK,Commercial,Communications,Soyuz,1 51640U 22012U   24206.98997418  .00000394  00000+0  10934-2 0  9996,2 51640  87.8961 173.9473 0001954  88.8942 271.2409 13.10369780118675,13.1036978,0.0001954,LEO
51641,ONEWEB-0448,2022,109.89,148.0,+,87.9,Active,1,LEO,French Guiana,UK,Commercial,Communications,Soyuz,1 51641U 22012V   24206.91859250  .00000069  00000+0  16231-3 0  9997,2 51641  87.8959 173.9625 0002114  79.0048 281.1317 13.10369954119920,13.10369954,0.0002114,LEO
51642,ONEWEB-0449,2022,109.89,148.0,+,87.9,Active,1,LEO,French Guiana,UK,Commercial,Communications,Soyuz,1 51642U 22012W   24206.38905685 -.00000210  00000+0 -63661-3 0  9992,2 51642  87.8951 174.0603 0002335  86.6684 273.4710 13.10369220118573,13.1036922,0.0002335,LEO
51643,ONEWEB-0451,2022,109.29,148.0,+,87.92,Active,1,LEO,French Guiana,UK,Commercial,Communications,Soyuz,1 51643U 22012X   24207.27871179  .00000068  00000+0  14275-3 0  9998,2 51643  87.9186 143.6246 0002223  75.7776 284.3602 13.17648431122541,13.17648431,0.0002223,LEO
51644,ONEWEB-0452,2022,109.29,148.0,+,87.92,Active,1,LEO,French Guiana,UK,Commercial,Communications,Soyuz,1 51644U 22012Y   24207.35303681  .00000143  00000+0  33451-3 0  9997,2 51644  87.9193 143.6522 0002437  77.9671 282.1734 13.17648286123868,13.17648286,0.0002437,LEO
51646,ONEWEB-0456,2022,109.89,148.0,+,87.89,Active,1,LEO,French Guiana,UK,Commercial,Communications,Soyuz,1 51646U 22012AA  24206.93350646 -.00000575  00000+0 -16837-2 0  9994,2 51646  87.8954 173.9234 0001844  78.7374 281.3961 13.10370278119976,13.10370278,0.0001844,LEO
51647,ONEWEB-0457,2022,109.89,148.0,+,87.9,Active,1,LEO,French Guiana,UK,Commercial,Communications,Soyuz,1 51647U 22012AB  24206.91030103  .00000468  00000+0  13044-2 0  9992,2 51647  87.8959 173.9535 0002205  89.9197 270.2183 13.10370610119989,13.1037061,0.0002205,LEO
51648,ONEWEB-0458,2022,109.89,148.0,+,87.9,Active,1,LEO,French Guiana,UK,Commercial,Communications,Soyuz,1 51648U 22012AC  24206.93185886 -.00000474  00000+0 -13936-2 0  9993,2 51648  87.8960 173.9658 0002233  80.7056 279.4324 13.10370813119941,13.10370813,0.0002233,LEO
